GLOBALSTAR M035         
1 25851U 99037A   24326.80492649 -.00000056  00000+0  30548-3 0  9992
2 25851  51.9913 157.4469 0013986  11.9199 111.6514 11.04534894 73349
GLOBALSTAR M032         
1 25852U 99037B   24326.29699344 -.00000158  00000+0 -29380-2 0  9992
2 25852  51.9983 358.1170 0010757 178.6640 181.4190 11.19055753111516
GLOBALSTAR M051         
1 25853U 99037C   24326.82438884 -.00000077  00000+0 -12944-3 0  9991
2 25853  51.9763 181.1292 0001120 139.7220 220.3674 11.42199060108699
GLOBALSTAR M030         
1 25854U 99037D   24326.48688323 -.00000106  00000+0 -65952-3 0  9999
2 25854  51.9905   1.2543 0003814  37.6462 322.4621 11.55100119126041
GLOBALSTAR M048         
1 25872U 99041A   24326.88505204 -.00000060  00000+0  27009-3 0  9993
2 25872  51.9345 107.9979 0013615 180.9101 349.9862 11.33852006101463
GLOBALSTAR M026         
1 25873U 99041B   24326.87803602 -.00000125  00000+0 -22571-2 0  9997
2 25873  52.0013 277.4216 0001078 294.7607  98.0604 11.06827044125534
GLOBALSTAR M043         
1 25874U 99041C   24326.65391831 -.00000044  00000+0  71634-3 0  9994
2 25874  51.9384 207.9248 0012767 322.5532  76.1823 11.25687808 99501
GLOBALSTAR M028         
1 25875U 99041D   24326.50910710 -.00000111  00000+0 -67365-4 0  9995
2 25875  51.9623  92.3177 0062800 340.9798  18.8719 12.50570153164228
